[{"OBJECT_NAME":"IRIDIUM 141","OBJECT_ID":"2017-083H","EPOCH":"2026-03-09T20:26:47.196096","MEAN_MOTION":14.34219969,"ECCENTRICITY":0.00021763,"INCLINATION":86.4016,"RA_OF_ASC_NODE":3.5025,"ARG_OF_PERICENTER":80.8622,"MEAN_ANOMALY":279.282,"EPHEMERIS_TYPE":0,"CLASSIFICATION_TYPE":"U","NORAD_CAT_ID":43077,"ELEMENT_SET_NO":999,"REV_AT_EPOCH":42993,"BSTAR":0.00010189032,"MEAN_MOTION_DOT":3.05e-6,"MEAN_MOTION_DDOT":0},{"OBJECT_NAME":"COSMOS 676","OBJECT_ID":"1974-071A","EPOCH":"2026-03-09T22:01:11.064288","MEAN_MOTION":14.33501445,"ECCENTRICITY":0.00133113,"INCLINATION":74.0466,"RA_OF_ASC_NODE":284.4069,"ARG_OF_PERICENTER":159.8939,"MEAN_ANOMALY":200.274,"EPHEMERIS_TYPE":0,"CLASSIFICATION_TYPE":"U","NORAD_CAT_ID":7433,"ELEMENT_SET_NO":999,"REV_AT_EPOCH":68862,"BSTAR":5.264421e-5,"MEAN_MOTION_DOT":1.2e-6,"MEAN_MOTION_DDOT":0}]
